CCSDS_OMM_VERS = 2.0
CREATION_DATE  = 
ORIGINATOR     = 

OBJECT_NAME    = ISS OBJECT XW
OBJECT_ID      = 1998-067XW
CENTER_NAME    = EARTH
REF_FRAME      = TEME
TIME_SYSTEM    = UTC
MEAN_ELEMENT_THEORY = SGP/SGP4

EPOCH          = 2026-02-22T06:22:44.756256
MEAN_MOTION    = 15.64464608
ECCENTRICITY   = .00038508
INCLINATION    = 51.6248
RA_OF_ASC_NODE = 143.9045
ARG_OF_PERICENTER = 10.7232
MEAN_ANOMALY   = 349.3844

EPHEMERIS_TYPE = 0
CLASSIFICATION_TYPE = U
NORAD_CAT_ID   = 66910
ELEMENT_SET_NO = 999
REV_AT_EPOCH   = 1276
BSTAR          = .11799439E-2
MEAN_MOTION_DOT = .116878E-2
MEAN_MOTION_DDOT = 0

CCSDS_OMM_VERS = 2.0
CREATION_DATE  = 
ORIGINATOR     = 

OBJECT_NAME    = ISS OBJECT XX
OBJECT_ID      = 1998-067XX
CENTER_NAME    = EARTH
REF_FRAME      = TEME
TIME_SYSTEM    = UTC
MEAN_ELEMENT_THEORY = SGP/SGP4

EPOCH          = 2026-02-22T22:56:51.932832
MEAN_MOTION    = 15.68794317
ECCENTRICITY   = .0006003
INCLINATION    = 51.6231
RA_OF_ASC_NODE = 139.5075
ARG_OF_PERICENTER = 6.7914
MEAN_ANOMALY   = 353.3163

EPHEMERIS_TYPE = 0
CLASSIFICATION_TYPE = U
NORAD_CAT_ID   = 66911
ELEMENT_SET_NO = 999
REV_AT_EPOCH   = 1287
BSTAR          = .15042E-2
MEAN_MOTION_DOT = .179139E-2
MEAN_MOTION_DDOT = 0

CCSDS_OMM_VERS = 2.0
CREATION_DATE  = 
ORIGINATOR     = 

OBJECT_NAME    = ISS OBJECT XY
OBJECT_ID      = 1998-067XY
CENTER_NAME    = EARTH
REF_FRAME      = TEME
TIME_SYSTEM    = UTC
MEAN_ELEMENT_THEORY = SGP/SGP4

EPOCH          = 2026-02-22T07:01:17.120064
MEAN_MOTION    = 15.60836405
ECCENTRICITY   = .00019029
INCLINATION    = 51.6274
RA_OF_ASC_NODE = 144.8438
ARG_OF_PERICENTER = 15.9273
MEAN_ANOMALY   = 344.1780

EPHEMERIS_TYPE = 0
CLASSIFICATION_TYPE = U
NORAD_CAT_ID   = 66912
ELEMENT_SET_NO = 999
REV_AT_EPOCH   = 1274
BSTAR          = .9604897E-3
MEAN_MOTION_DOT = .82068E-3
MEAN_MOTION_DDOT = 0

CCSDS_OMM_VERS = 2.0
CREATION_DATE  = 
ORIGINATOR     = 

OBJECT_NAME    = ISS OBJECT XZ
OBJECT_ID      = 1998-067XZ
CENTER_NAME    = EARTH
REF_FRAME      = TEME
TIME_SYSTEM    = UTC
MEAN_ELEMENT_THEORY = SGP/SGP4

EPOCH          = 2026-02-22T06:22:16.677120
MEAN_MOTION    = 15.50521186
ECCENTRICITY   = .00100054
INCLINATION    = 51.6314
RA_OF_ASC_NODE = 148.4121
ARG_OF_PERICENTER = 134.8539
MEAN_ANOMALY   = 225.3264

EPHEMERIS_TYPE = 0
CLASSIFICATION_TYPE = U
NORAD_CAT_ID   = 67683
ELEMENT_SET_NO = 999
REV_AT_EPOCH   = 239
BSTAR          = .7140621E-3
MEAN_MOTION_DOT = .41343E-3
MEAN_MOTION_DDOT = 0

CCSDS_OMM_VERS = 2.0
CREATION_DATE  = 
ORIGINATOR     = 

OBJECT_NAME    = GXIBA-1
OBJECT_ID      = 1998-067YA
CENTER_NAME    = EARTH
REF_FRAME      = TEME
TIME_SYSTEM    = UTC
MEAN_ELEMENT_THEORY = SGP/SGP4

EPOCH          = 2026-02-22T15:26:02.582880
MEAN_MOTION    = 15.51889665
ECCENTRICITY   = .0011656
INCLINATION    = 51.6313
RA_OF_ASC_NODE = 146.4331
ARG_OF_PERICENTER = 128.7037
MEAN_ANOMALY   = 231.4997

EPHEMERIS_TYPE = 0
CLASSIFICATION_TYPE = U
NORAD_CAT_ID   = 67684
ELEMENT_SET_NO = 999
REV_AT_EPOCH   = 245
BSTAR          = .12925E-2
MEAN_MOTION_DOT = .79428E-3
MEAN_MOTION_DDOT = 0

CCSDS_OMM_VERS = 2.0
CREATION_DATE  = 
ORIGINATOR     = 

OBJECT_NAME    = CORAL
OBJECT_ID      = 1998-067YB
CENTER_NAME    = EARTH
REF_FRAME      = TEME
TIME_SYSTEM    = UTC
MEAN_ELEMENT_THEORY = SGP/SGP4

EPOCH          = 2026-02-22T20:15:08.231328
MEAN_MOTION    = 15.50787508
ECCENTRICITY   = .00119113
INCLINATION    = 51.6309
RA_OF_ASC_NODE = 145.5236
ARG_OF_PERICENTER = 133.1205
MEAN_ANOMALY   = 227.0782

EPHEMERIS_TYPE = 0
CLASSIFICATION_TYPE = U
NORAD_CAT_ID   = 67685
ELEMENT_SET_NO = 999
REV_AT_EPOCH   = 248
BSTAR          = .80080164E-3
MEAN_MOTION_DOT = .46938E-3
MEAN_MOTION_DDOT = 0

CCSDS_OMM_VERS = 2.0
CREATION_DATE  = 
ORIGINATOR     = 

OBJECT_NAME    = ISS OBJECT YC
OBJECT_ID      = 1998-067YC
CENTER_NAME    = EARTH
REF_FRAME      = TEME
TIME_SYSTEM    = UTC
MEAN_ELEMENT_THEORY = SGP/SGP4

EPOCH          = 2026-02-22T06:17:35.185920
MEAN_MOTION    = 15.50999605
ECCENTRICITY   = .00076877
INCLINATION    = 51.6313
RA_OF_ASC_NODE = 148.3904
ARG_OF_PERICENTER = 102.1024
MEAN_ANOMALY   = 258.0828

EPHEMERIS_TYPE = 0
CLASSIFICATION_TYPE = U
NORAD_CAT_ID   = 67686
ELEMENT_SET_NO = 999
REV_AT_EPOCH   = 239
BSTAR          = .86445125E-3
MEAN_MOTION_DOT = .51037E-3
MEAN_MOTION_DDOT = 0

CCSDS_OMM_VERS = 2.0
CREATION_DATE  = 
ORIGINATOR     = 

OBJECT_NAME    = LEOPARD
OBJECT_ID      = 1998-067YD
CENTER_NAME    = EARTH
REF_FRAME      = TEME
TIME_SYSTEM    = UTC
MEAN_ELEMENT_THEORY = SGP/SGP4

EPOCH          = 2026-02-22T17:10:32.611008
MEAN_MOTION    = 15.50684612
ECCENTRICITY   = .00077678
INCLINATION    = 51.6314
RA_OF_ASC_NODE = 146.1685
ARG_OF_PERICENTER = 106.0969
MEAN_ANOMALY   = 254.0876

EPHEMERIS_TYPE = 0
CLASSIFICATION_TYPE = U
NORAD_CAT_ID   = 67687
ELEMENT_SET_NO = 999
REV_AT_EPOCH   = 238
BSTAR          = .77930749E-3
MEAN_MOTION_DOT = .45416E-3
MEAN_MOTION_DDOT = 0

CCSDS_OMM_VERS = 2.0
CREATION_DATE  = 
ORIGINATOR     = 

OBJECT_NAME    = ISS OBJECT YE
OBJECT_ID      = 1998-067YE
CENTER_NAME    = EARTH
REF_FRAME      = TEME
TIME_SYSTEM    = UTC
MEAN_ELEMENT_THEORY = SGP/SGP4

EPOCH          = 2026-02-22T06:18:34.486560
MEAN_MOTION    = 15.50878079
ECCENTRICITY   = .00076954
INCLINATION    = 51.6324
RA_OF_ASC_NODE = 148.3958
ARG_OF_PERICENTER = 103.3001
MEAN_ANOMALY   = 256.8847

EPHEMERIS_TYPE = 0
CLASSIFICATION_TYPE = U
NORAD_CAT_ID   = 67688
ELEMENT_SET_NO = 999
REV_AT_EPOCH   = 231
BSTAR          = .81294922E-3
MEAN_MOTION_DOT = .4774E-3
MEAN_MOTION_DDOT = 0

CCSDS_OMM_VERS = 2.0
CREATION_DATE  = 
ORIGINATOR     = 

OBJECT_NAME    = CREW DRAGON 12
OBJECT_ID      = 2026-031A
CENTER_NAME    = EARTH
REF_FRAME      = TEME
TIME_SYSTEM    = UTC
MEAN_ELEMENT_THEORY = SGP/SGP4

EPOCH          = 2026-02-22T17:36:16.529760
MEAN_MOTION    = 15.48216789
ECCENTRICITY   = .00084814
INCLINATION    = 51.6318
RA_OF_ASC_NODE = 146.2856
ARG_OF_PERICENTER = 123.1422
MEAN_ANOMALY   = 237.0381

EPHEMERIS_TYPE = 0
CLASSIFICATION_TYPE = U
NORAD_CAT_ID   = 67796
ELEMENT_SET_NO = 999
REV_AT_EPOCH   = 55398
BSTAR          = .26931019E-3
MEAN_MOTION_DOT = .14029E-3
MEAN_MOTION_DDOT = 0

